[{"OBJECT_NAME":"SPAWAR-CAL-O","OBJECT_ID":"2018-099J","EPOCH":"2026-03-09T17:45:15.080832","MEAN_MOTION":15.31356755,"ECCENTRICITY":0.00072392,"INCLINATION":97.4452,"RA_OF_ASC_NODE":132.0993,"ARG_OF_PERICENTER":285.067,"MEAN_ANOMALY":74.977,"EPHEMERIS_TYPE":0,"CLASSIFICATION_TYPE":"U","NORAD_CAT_ID":43766,"ELEMENT_SET_NO":999,"REV_AT_EPOCH":39828,"BSTAR":0.00069663212,"MEAN_MOTION_DOT":0.00021069,"MEAN_MOTION_DDOT":0},{"OBJECT_NAME":"STARLINK-34569","OBJECT_ID":"2025-137S","EPOCH":"2026-03-09T21:35:26.222784","MEAN_MOTION":15.30240762,"ECCENTRICITY":9.505e-5,"INCLINATION":53.157,"RA_OF_ASC_NODE":334.5045,"ARG_OF_PERICENTER":47.2702,"MEAN_ANOMALY":312.8378,"EPHEMERIS_TYPE":0,"CLASSIFICATION_TYPE":"U","NORAD_CAT_ID":64610,"ELEMENT_SET_NO":999,"REV_AT_EPOCH":4076,"BSTAR":0.0010834416,"MEAN_MOTION_DOT":0.00031908,"MEAN_MOTION_DDOT":0}]
